NORAD_CAT_ID,OBJECT_NAME,OBJECT_TYPE,EPOCH,MEAN_MOTION,ECCENTRICITY,INCLINATION,RA_OF_ASC_NODE,ARG_OF_PERICENTER,MEAN_ANOMALY,BSTAR,MEAN_MOTION_DOT,MEAN_MOTION_DDOT,TLE_LINE0,TLE_LINE1,TLE_LINE2,SEMIMAJOR_AXIS,PERIOD,APOGEE,PERIGEE,DECAYED
54065.0,STARLINK-5187,PAYLOAD,2024-01-30 15:02:09,15.08838629,0.0001364,53.2156,196.4274,101.0917,259.0229,5.0653e-05,5.18e-06,0.0,0 STARLINK-5187,1 54065U 22136Q   24030.62649524  .00000518  00000-0  50653-4 0  9998,2 54065  53.2156 196.4274 0001364 101.0917 259.0229 15.08838629 70747,6917.885,95.438,540.693,538.806,0.0
54065.0,STARLINK-5187,PAYLOAD,2024-01-30 16:37:32,15.0883865,0.0001341,53.2162,196.1301,98.231,261.8834,5.0094e-05,5.09e-06,0.0,0 STARLINK-5187,1 54065U 22136Q   24030.69273547  .00000509  00000-0  50094-4 0  9992,2 54065  53.2162 196.1301 0001341  98.2310 261.8834 15.08838650 71233,6917.885,95.438,540.677,538.822,0.0
54065.0,STARLINK-5187,PAYLOAD,2024-01-31 10:06:47,15.08836301,0.0001539,53.217,192.8611,107.1628,252.9532,1.4682e-05,-5.4e-07,0.0,0 STARLINK-5187,1 54065U 22136Q   24031.42137961 -.00000054  00000-0  14682-4 0  9992,2 54065  53.2170 192.8611 0001539 107.1628 252.9532 15.08836301 70865,6917.892,95.438,540.821,538.692,0.0
54065.0,STARLINK-5187,PAYLOAD,2024-02-01 17:54:30,15.08838636,0.0001288,53.2167,186.9149,96.4509,263.663,4.7162e-05,4.63e-06,0.0,0 STARLINK-5187,1 54065U 22136Q   24032.74618065  .00000463  00000-0  47162-4 0  9999,2 54065  53.2167 186.9149 0001288  96.4509 263.6630 15.08838636 71547,6917.885,95.438,540.641,538.859,0.0
54065.0,STARLINK-5187,PAYLOAD,2024-02-02 14:34:30,15.08841983,0.0001257,53.2159,183.0513,91.3694,268.7442,0.00012184,1.652e-05,0.0,0 STARLINK-5187,1 54065U 22136Q   24033.60729619  .00001652  00000-0  12184-3 0  9999,2 54065  53.2159 183.0513 0001257  91.3694 268.7442 15.08841983 71193,6917.874,95.437,540.609,538.87,0.0
54065.0,STARLINK-5187,PAYLOAD,2024-02-02 16:09:53,15.0884292,0.0001365,53.216,182.7541,85.499,274.6158,0.00013062,1.792e-05,0.0,0 STARLINK-5187,1 54065U 22136Q   24033.67353586  .00001792  00000-0  13062-3 0  9993,2 54065  53.2160 182.7541 0001365  85.4990 274.6158 15.08842920 71209,6917.871,95.437,540.681,538.792,0.0
54065.0,STARLINK-5187,PAYLOAD,2024-02-03 09:39:08,15.0884429,0.0001453,53.2152,179.4851,75.873,284.2424,1.6468e-05,-2.6e-07,0.0,0 STARLINK-5187,1 54065U 22136Q   24034.40218013 -.00000026  00000-0  16468-4 0  9994,2 54065  53.2152 179.4851 0001453  75.8730 284.2424 15.08844290 71317,6917.867,95.437,540.737,538.727,0.0
54065.0,STARLINK-5187,PAYLOAD,2024-02-03 16:00:41,15.08840683,0.0001364,53.2155,178.2947,80.9384,279.1762,-5.9476e-06,-3.83e-06,0.0,0 STARLINK-5187,1 54065U 22136Q   24034.66714204 -.00000383  00000-0 -59476-5 0  9999,2 54065  53.2155 178.2947 0001364  80.9384 279.1762 15.08840683 71833,6917.878,95.438,540.687,538.8,0.0
54065.0,STARLINK-5187,PAYLOAD,2024-02-04 14:16:04,15.08840905,0.0001433,53.2167,174.1315,100.7376,259.3777,-6.3849e-07,-2.98e-06,0.0,0 STARLINK-5187,1 54065U 22136Q   24035.59450034 -.00000298  00000-0 -63849-6 0  9995,2 54065  53.2167 174.1315 0001433 100.7376 259.3777 15.08840905 71494,6917.878,95.437,540.734,538.751,0.0
54065.0,STARLINK-5187,PAYLOAD,2024-02-04 19:02:13,15.08845213,0.0001414,53.2164,173.238,101.3416,258.7735,2.7461e-05,1.49e-06,0.0,0 STARLINK-5187,1 54065U 22136Q   24035.79321614  .00000149  00000-0  27461-4 0  9999,2 54065  53.2164 173.2380 0001414 101.3416 258.7735 15.08845213 72006,6917.864,95.437,540.708,538.751,0.0
54065.0,STARLINK-5187,PAYLOAD,2024-02-05 12:31:28,15.08837097,0.0001412,53.2168,169.964,97.8029,262.3123,1.6777e-05,-2.1e-07,0.0,0 STARLINK-5187,1 54065U 22136Q   24036.52186246 -.00000021  00000-0  16777-4 0  9999,2 54065  53.2168 169.9640 0001412  97.8029 262.3123 15.08837097 72113,6917.889,95.438,540.731,538.777,0.0
54065.0,STARLINK-5187,PAYLOAD,2024-02-05 14:06:52,15.08837766,0.000141,53.2168,169.6667,95.0785,265.0368,2.1369e-05,5.2e-07,0.0,0 STARLINK-5187,1 54065U 22136Q   24036.58810213  .00000052  00000-0  21369-4 0  9999,2 54065  53.2168 169.6667 0001410  95.0785 265.0368 15.08837766 71647,6917.887,95.438,540.728,538.777,0.0
54065.0,STARLINK-5187,PAYLOAD,2024-02-05 15:42:15,15.08838917,0.0001432,53.2171,169.3693,94.1694,265.9462,2.8327e-05,1.63e-06,0.0,0 STARLINK-5187,1 54065U 22136Q   24036.65434131  .00000163  00000-0  28327-4 0  9992,2 54065  53.2171 169.3693 0001432  94.1694 265.9462 15.08838917 71654,6917.884,95.438,540.739,538.758,0.0
54065.0,STARLINK-5187,PAYLOAD,2024-02-06 13:57:38,15.08844512,0.0001419,53.2176,165.2095,92.479,267.6365,4.871e-05,4.87e-06,0.0,0 STARLINK-5187,1 54065U 22136Q   24037.58169869  .00000487  00000-0  48710-4 0  9995,2 54065  53.2176 165.2095 0001419  92.4790 267.6365 15.08844512 71797,6917.867,95.437,540.713,538.75,0.0
54065.0,STARLINK-5187,PAYLOAD,2024-02-07 12:13:03,15.08837239,0.0001526,53.2171,161.0461,105.1505,254.9657,-1.8718e-05,-5.86e-06,0.0,0 STARLINK-5187,1 54065U 22136Q   24038.50906745 -.00000586  00000-0 -18718-4 0  9997,2 54065  53.2171 161.0461 0001526 105.1505 254.9657 15.08837239 72419,6917.889,95.438,540.809,538.698,0.0
54065.0,STARLINK-5187,PAYLOAD,2024-02-07 13:48:26,15.08838419,0.0001592,53.2172,160.7491,108.257,251.8595,-8.6458e-06,-4.26e-06,0.0,0 STARLINK-5187,1 54065U 22136Q   24038.57530655 -.00000426  00000-0 -86458-5 0  9997,2 54065  53.2172 160.7491 0001592 108.2570 251.8595 15.08838419 71943,6917.885,95.438,540.852,538.649,0.0
54065.0,STARLINK-5187,PAYLOAD,2024-02-07 15:23:49,15.08837165,0.0001766,53.2176,160.4511,62.7883,297.3289,2.6055e-05,1.27e-06,0.0,0 STARLINK-5187,1 54065U 22136Q   24038.64154910  .00000127  00000-0  26055-4 0  9993,2 54065  53.2176 160.4511 0001766  62.7883 297.3289 15.08837165 71954,6917.889,95.438,540.976,538.532,0.0
54065.0,STARLINK-5187,PAYLOAD,2024-02-08 12:03:51,15.08832209,0.0001924,53.2184,156.5876,62.0195,298.0991,-1.1636e-05,-4.73e-06,0.0,0 STARLINK-5187,1 54065U 22136Q   24039.50267816 -.00000473  00000-0 -11636-4 0  9994,2 54065  53.2184 156.5876 0001924  62.0195 298.0991 15.08832209 72568,6917.904,95.438,541.1,538.438,0.0
54065.0,STARLINK-5187,PAYLOAD,2024-02-08 13:39:14,15.08833224,0.0001972,53.2178,156.2913,57.6817,302.4366,-1.6203e-05,-5.46e-06,0.0,0 STARLINK-5187,1 54065U 22136Q   24039.56891812 -.00000546  00000-0 -16203-4 0  9995,2 54065  53.2178 156.2913 0001972  57.6817 302.4366 15.08833224 72096,6917.901,95.438,541.13,538.402,0.0
54065.0,STARLINK-5187,PAYLOAD,2024-02-08 18:25:23,15.08834956,0.000201,53.2178,155.3985,54.0288,306.089,-5.9573e-06,-3.83e-06,0.0,0 STARLINK-5187,1 54065U 22136Q   24039.76763754 -.00000383  00000-0 -59573-5 0  9997,2 54065  53.2178 155.3985 0002010  54.0288 306.0890 15.08834956 72121,6917.896,95.438,541.151,538.37,0.0
54065.0,STARLINK-5187,PAYLOAD,2024-02-09 11:54:37,15.08842695,0.0002222,53.2179,152.1274,57.0204,303.1001,0.00011567,1.553e-05,0.0,0 STARLINK-5187,1 54065U 22136Q   24040.49626998  .00001553  00000-0  11567-3 0  9994,2 54065  53.2179 152.1274 0002222  57.0204 303.1001 15.08842695 72710,6917.872,95.437,541.274,538.2,0.0
54065.0,STARLINK-5187,PAYLOAD,2024-02-09 13:30:00,15.08844493,0.0002324,53.2178,151.8303,55.5435,304.5776,0.00013215,1.816e-05,0.0,0 STARLINK-5187,1 54065U 22136Q   24040.56250890  .00001816  00000-0  13215-3 0  9990,2 54065  53.2178 151.8303 0002324  55.5435 304.5776 15.08844493 72240,6917.867,95.437,541.339,538.124,0.0
54065.0,STARLINK-5187,PAYLOAD,2024-02-09 16:40:46,15.08856386,0.0002207,53.218,151.2306,56.1005,304.0197,0.00022049,3.224e-05,0.0,0 STARLINK-5187,1 54065U 22136Q   24040.69497793  .00003224  00000-0  22049-3 0  9999,2 54065  53.2180 151.2306 0002207  56.1005 304.0197 15.08856386 72741,6917.83,95.437,541.222,538.169,0.0
54065.0,STARLINK-5187,PAYLOAD,2024-02-10 11:45:24,15.08841987,0.0001754,53.2165,147.6637,116.5417,243.5755,1.9446e-05,2.1e-07,0.0,0 STARLINK-5187,1 54065U 22136Q   24041.48986881  .00000021  00000-0  19446-4 0  9998,2 54065  53.2165 147.6637 0001754 116.5417 243.5755 15.08841987 72865,6917.874,95.437,540.953,538.526,0.0
54065.0,STARLINK-5187,PAYLOAD,2024-02-10 13:20:47,15.0884322,0.0001924,53.2183,147.3571,77.4146,282.7061,5.4919e-05,5.86e-06,0.0,0 STARLINK-5187,1 54065U 22136Q   24041.55610940  .00000586  00000-0  54919-4 0  9996,2 54065  53.2183 147.3571 0001924  77.4146 282.7061 15.08843220 72397,6917.871,95.437,541.067,538.405,0.0
54065.0,STARLINK-5187,PAYLOAD,2024-02-10 16:31:33,15.0884497,0.0001703,53.2166,146.7722,91.4176,268.7011,5.414e-05,5.74e-06,0.0,0 STARLINK-5187,1 54065U 22136Q   24041.68858761  .00000574  00000-0  54140-4 0  9998,2 54065  53.2166 146.7722 0001703  91.4176 268.7011 15.08844970 72418,6917.865,95.437,540.908,538.552,0.0
54065.0,STARLINK-5187,PAYLOAD,2024-02-11 13:11:34,15.08854965,0.0001628,53.2163,142.9095,85.9259,274.1919,-7.0708e-05,-1.414e-05,0.0,0 STARLINK-5187,1 54065U 22136Q   24042.54970277 -.00001414  00000-0 -70708-4 0  9995,2 54065  53.2163 142.9095 0001628  85.9259 274.1919 15.08854965 72549,6917.835,95.437,540.826,538.573,0.0
54065.0,STARLINK-5187,PAYLOAD,2024-02-11 16:22:19,15.08861872,0.0001571,53.2176,142.3073,94.6463,265.4709,2.9348e-05,1.79e-06,0.0,0 STARLINK-5187,1 54065U 22136Q   24042.68217334  .00000179  00000-0  29348-4 0  9997,2 54065  53.2176 142.3073 0001571  94.6463 265.4709 15.08861872 73045,6917.814,95.436,540.765,538.592,0.0
54065.0,STARLINK-5187,PAYLOAD,2024-02-12 11:26:57,15.08852661,0.000154,53.2161,138.7397,98.5482,261.5685,6.2487e-05,7.07e-06,0.0,0 STARLINK-5187,1 54065U 22136Q   24043.47705566  .00000707  00000-0  62487-4 0  9992,2 54065  53.2161 138.7397 0001540  98.5482 261.5685 15.08852661 73166,6917.842,95.437,540.772,538.641,0.0
54065.0,STARLINK-5187,PAYLOAD,2024-02-13 11:17:46,15.08836877,0.0001466,53.216,134.2785,100.1591,259.9566,-8.861e-05,-1.698e-05,0.0,0 STARLINK-5187,1 54065U 22136Q   24044.47067260 -.00001698  00000-0 -88610-4 0  9993,2 54065  53.2160 134.2785 0001466 100.1591 259.9566 15.08836877 73312,6917.89,95.438,540.769,538.741,0.0
